392P/LINEAR,e,4.9305,24.8339,71.9162,6.141288,0.0647612,0.68386539,106.5064,10/03.0/2024,2000,g 14.5,4.0
# From MPEC 2023-T65
393P/Spacewatch-Hill,e,16.7863,36.3959,329.2083,4.798412,0.0937687,0.11957410,168.6342,10/03.0/2024,2000,g 11.0,4.0
# From MPEC 2020-KB7
394P/PANSTARRS,e,8.5290,98.1186,54.4099,4.327803,0.1094720,0.36800308,193.6620,10/03.0/2024,2000,g 16.0,2.4
# From MPEC 2024-PC5
395P/Catalina-NEAT,e,3.5773,221.0178,100.3589,7.197508,0.0510424,0.41328153,48.7472,10/03.0/2024,2000,g 10.0,4.0
# From MPEC 2020-KB7
396P/,e,5.4407,136.6168,8.3038,6.799556,0.0555883,0.41664266,103.5473,10/03.0/2024,2000,g 12.0,4.0
# From MPEC 2022-OB6
397P/Lemmon,e,10.9232,8.2206,14.5742,3.831628,0.1314102,0.40487409,205.7609,10/03.0/2024,2000,g 12.0,4.0
# From MPEC 2021-L04
398P/Boattini,e,11.0246,320.1410,127.5228,3.125150,0.1784012,0.58368632,245.3044,10/03.0/2024,2000,g 15.5,4.0
# From MPEC 2023-XP6
399P/PANSTARRS,e,13.3196,207.1268,214.4167,3.793259,0.1334091,0.44741842,163.9014,10/03.0/2024,2000,g 14.0,4.0
# From MPEC 2022-ED3
400P/PANSTARRS,e,10.9283,176.3926,238.8876,3.561961,0.1466123,0.40970031,194.9638,10/03.0/2024,2000,g 15.5,2.8
# From MPEC 2022-K19
401P/McNaught,e,12.8009,359.9170,309.3981,5.777606,0.0709712,0.57854545,125.2205,10/03.0/2024,2000,g 12.5,4.0
# From MPEC 2024-LE0
402P/LINEAR,e,30.8306,123.0593,326.9075,7.036510,0.0528042,0.44001881,53.9830,10/03.0/2024,2000,g  9.0,4.0
# From MPEC 2021-J28
403P/Catalina,e,12.3302,277.5684,163.9268,5.431269,0.0778668,0.50430872,114.9660,10/03.0/2024,2000,g 12.0,4.0
# From MPEC 2024-MB8
404P/Bressi,e,9.8041,260.0416,169.2269,4.722937,0.0960253,0.12499569,32.1810,10/03.0/2024,2000,g 10.0,4.0
# From MPEC 2021-L04
405P/Lemmon,e,9.3772,112.1911,3.2981,3.604436,0.1440284,0.69001051,198.4592,10/03.0/2024,2000,g 17.5,4.0
# From MPEC 2021-F20
406P/Gibbs,e,1.2105,352.4054,11.5534,3.578748,0.1455819,0.54134546,215.2061,10/03.0/2024,2000,g 17.0,4.0
# From MPEC 2022-YN2
407P/PANSTARRS-Fuls,e,4.8765,80.2397,93.3546,3.488187,0.1512880,0.37641503,260.0220,10/03.0/2024,2000,g 14.0,4.0
# From MPEC 2024-N80
408P/Novichonok-Gerke,e,19.3551,189.4471,226.6260,4.744314,0.0953770,0.26861449,69.4445,10/03.0/2024,2000,g 11.0,4.0
# From MPEC 2022-ED3
409P/LONEOS-Hill,e,17.1398,143.6441,15.0481,6.033403,0.0665060,0.70999101,89.3670,10/03.0/2024,2000,g 14.0,4.0
# From MPEC 2022-M21
410P/NEAT-LINEAR,e,9.3884,139.9550,313.1999,6.650200,0.0574714,0.51171812,68.7670,10/03.0/2024,2000,g 12.5,4.0
# From MPEC 2021-J28
411P/Christensen,e,12.3898,77.6538,46.5508,5.811297,0.0703549,0.58157224,94.7605,10/03.0/2024,2000,g 13.5,4.0
# From MPEC 2021-F20
412P/WISE,e,8.9307,0.8456,155.8832,3.110777,0.1796390,0.47898186,251.3621,10/03.0/2024,2000,g 17.0,4.0
# From MPEC 2022-OB6
413P/Larson,e,15.9674,39.2343,186.5350,3.734251,0.1365837,0.41862983,160.3209,10/03.0/2024,2000,g 14.0,4.0
# From MPEC 2024-JU4
414P/STEREO,e,23.4076,257.8181,210.6954,2.792577,0.2112012,0.81219940,284.3175,10/03.0/2024,2000,g 19.0,4.0
# From MPEC 2022-J42
415P/Tenagra,e,31.8018,160.2635,345.8684,4.109099,0.1183271,0.19525848,157.0615,10/03.0/2024,2000,g 12.0,4.0
# From MPEC 2021-L04
416P/Scotti,e,3.3624,355.7512,134.4207,4.007226,0.1228679,0.45519079,162.7934,10/03.0/2024,2000,g 15.5,4.0
# From MPEC 2021-W31
417P/NEOWISE,e,9.0748,116.4379,122.8274,3.308990,0.1637423,0.57149989,206.1005,10/03.0/2024,2000,g 16.5,4.0
# From MPEC 2022-TA0
418P/LINEAR,e,5.7804,277.6347,307.3601,5.092552,0.0857632,0.66369518,92.8368,10/03.0/2024,2000,g 13.0,4.0
# From MPEC 2023-UR6
419P/PANSTARRS,e,2.7990,40.4200,187.8998,3.530114,0.1486008,0.27506035,159.3818,10/03.0/2024,2000,g 12.5,4.0
# From MPEC 2024-L77
420P/Hill,e,14.4869,173.7052,156.4734,5.493794,0.0765413,0.49526322,66.4095,10/03.0/2024,2000,g 11.5,4.0
# From MPEC 2021-W31
421P/McNaught,e,10.0758,55.3317,259.8882,5.075893,0.0861857,0.67452344,116.1351,10/03.0/2024,2000,g 14.0,4.0
# From MPEC 2024-N80
422P/Christensen,e,39.5817,36.0194,304.8014,6.278308,0.0626528,0.50607707,62.3711,10/03.0/2024,2000,g 11.0,4.0
# From MPEC 2023-FK0
423P/Lemmon,e,8.3447,33.3004,80.6726,6.178633,0.0641749,0.12263603,70.9458,10/03.0/2024,2000,g  8.0,4.0
# From MPEC 2022-CN4
424P/LaSagra,e,8.6828,51.1969,312.5607,4.420116,0.1060605,0.69073102,113.2379,10/03.0/2024,2000,g 17.0,4.0
# From MPEC 2024-C04
425P/Kowalski,e,16.4188,210.0791,200.9435,6.348476,0.0616169,0.54396063,68.2664,10/03.0/2024,2000,g 12.0,4.0
# From MPEC 2024-N80
426P/PANSTARRS,e,17.7837,280.3958,118.4614,3.186477,0.1732758,0.16120874,67.2809,10/03.0/2024,2000,g 13.5,4.0
# From MPEC 2023-J29
428P/Gibbs,e,8.5043,299.3208,36.9063,3.487687,0.1513205,0.51848352,187.3629,10/03.0/2024,2000,g 15.0,4.0
# From MPEC 2024-EF7
429P/LINEAR-Hill,e,7.5153,322.0366,75.6962,3.555021,0.1470418,0.49115494,147.7302,10/03.0/2024,2000,g 15.5,4.0
# From MPEC 2022-L66
430P/Scotti,e,4.4753,54.6619,94.4271,3.103853,0.1802405,0.50000379,186.6654,10/03.0/2024,2000,g 16.5,4.0
# From MPEC 2024-EF7
431P/Scotti,e,22.3873,202.8430,199.9792,3.476310,0.1520640,0.47760306,146.3478,10/03.0/2024,2000,g 14.0,4.0
# From MPEC 2021-U31
432P/PANSTARRS,e,10.0683,239.1287,105.3159,3.037520,0.1861767,0.24110307,210.4353,10/03.0/2024,2000,g 17.0,4.0
# From MPEC 2024-D33
434P/Tenagra,e,6.3360,288.9250,128.3724,4.134545,0.1172364,0.27459621,125.6710,10/03.0/2024,2000,g 13.0,4.0
# From MPEC 2021-W31
435P/PANSTARRS,e,18.8744,98.5289,244.2405,3.020866,0.1877184,0.31780685,218.5420,10/03.0/2024,2000,g 17.0,4.0
# From MPEC 2022-X67
436P/Garradd,e,20.1999,87.1602,282.7373,5.935934,0.0681507,0.66940783,70.1785,10/03.0/2024,2000,g 14.5,4.0
# From MPEC 2023-B57
437P/Lemmon-PANSTARRS,e,3.6891,245.8404,206.9632,4.566925,0.1009877,0.25509618,78.2896,10/03.0/2024,2000,g 13.0,4.0
# From MPEC 2021-W47
438P/Christensen,e,8.2808,260.1109,59.0253,3.851448,0.1303971,0.41436643,214.3256,10/03.0/2024,2000,g 14.5,4.0
# From MPEC 2022-C56
439P/LINEAR,e,7.1134,56.4353,342.0951,3.491235,0.1510899,0.46937125,171.2688,10/03.0/2024,2000,g 13.5,4.0
# From MPEC 2024-N80
440P/Kobayashi,e,12.3453,328.8273,183.2875,8.577038,0.0392372,0.76064997,36.0161,10/03.0/2024,2000,g 15.5,4.0
# From MPEC 2022-X67
441P/PANSTARRS,e,2.5745,143.5967,178.8667,4.133240,0.1172919,0.19489338,319.9598,10/03.0/2024,2000,g 13.5,4.0
# From MPEC 2024-N80
442P/McNaught,e,6.0575,31.9874,310.7004,4.959833,0.0892285,0.53261273,69.3177,10/03.0/2024,2000,g 13.5,4.0
# From MPEC 2023-SQ0
443P/PANSTARRS-Christensen,e,19.8878,108.9387,145.1071,4.125207,0.1176347,0.28317622,85.1799,10/03.0/2024,2000,g 13.5,4.0
# From MPEC 2023-VM5
444P/WISE-PANSTARRS,e,22.6048,88.3241,172.5490,3.454761,0.1534889,0.56598086,125.4674,10/03.0/2024,2000,g 17.0,4.0
# From MPEC 2024-BE0
445P/Lemmon-PANSTARRS,e,1.0886,126.5906,213.3109,4.048874,0.1209770,0.41398045,94.1697,10/03.0/2024,2000,g 15.0,4.0
# From MPEC 2024-NE4
446P/McNaught,e,16.6182,336.3673,344.6573,4.563201,0.1011113,0.64670372,86.7387,10/03.0/2024,2000,g 16.5,4.0
# From MPEC 2022-YB4
447P/Sheppard-Tholen,e,7.4395,302.6359,97.6620,5.629752,0.0737854,0.17786966,57.3221,10/03.0/2024,2000,g 12.0,4.0
# From MPEC 2024-PC5
448P/PANSTARRS,e,12.1482,161.7577,218.7789,3.635496,0.1421866,0.41849186,107.7144,10/03.0/2024,2000,g 16.0,4.0
# From MPEC 2024-DC6
449P/Leonard,e,15.4718,242.5240,176.7436,3.600008,0.1442942,0.47985355,203.1794,10/03.0/2024,2000,g 16.0,4.0
# From MPEC 2024-RQ6
450P/LONEOS,e,10.5807,124.6329,21.9591,7.965238,0.0438436,0.31320659,323.1798,10/03.0/2024,2000,g  6.5,4.0
# From MPEC 2023-HD1
451P/Christensen,e,26.4811,300.8814,186.7496,6.346625,0.0616439,0.55906077,41.6253,10/03.0/2024,2000,g 15.5,4.0
# From MPEC 2024-NE4
452P/Sheppard-Jewitt,e,6.4215,123.6759,37.0598,7.306178,0.0499078,0.42818062,26.2683,10/03.0/2024,2000,g  9.0,4.0
# From MPEC 2023-RF3
453P/WISE-Lemmon,e,27.0660,42.8962,70.8671,5.464794,0.0771513,0.58302194,44.7318,10/03.0/2024,2000,g 14.0,4.0
# From MPEC 2023-CD7
454P/PANSTARRS,e,19.8124,54.5829,20.1371,4.209836,0.1141054,0.36157736,91.2246,10/03.0/2024,2000,g 14.0,4.0
# From MPEC 2022-Y14
455P/PANSTARRS,e,14.1369,146.1842,237.5162,3.152773,0.1760618,0.30470987,103.1480,10/03.0/2024,2000,g 17.0,4.0
# From MPEC 2023-N01
456P/PANSTARRS,e,16.9702,243.1577,233.1140,3.173452,0.1743436,0.11710385,326.1033,10/03.0/2024,2000,g 13.5,4.0
# From MPEC 2024-P23
457P/Lemmon-PANSTARRS,e,5.2252,175.9668,104.3852,2.645792,0.2290185,0.11855287,10.0033,10/03.0/2024,2000,g 15.5,4.0
# From MPEC 2023-HD1
458P/Jahn,e,13.6244,1.5786,104.8723,3.858430,0.1300433,0.31721608,91.4840,10/03.0/2024,2000,g 17.3,4.0
# From MPEC 2024-N80
459P/Catalina,e,7.1737,256.9881,205.2098,3.240096,0.1689924,0.57779678,99.6196,10/03.0/2024,2000,g 15.5,4.0
# From MPEC 2023-G14
460P/PANSTARRS,e,18.8972,180.5151,351.9416,3.027148,0.1871344,0.66406876,225.4851,10/03.0/2024,2000,g 21.0,4.0
# From MPEC 2024-GJ3
461P/WISE,e,18.4056,194.3798,174.8342,3.143783,0.1768175,0.56987210,193.4779,10/03.0/2024,2000,g 18.5,4.0
# From MPEC 2024-BE0
462P/LONEOS-PANSTARRS,e,7.0334,322.7293,4.3163,4.870934,0.0916823,0.57820373,72.7375,10/03.0/2024,2000,g 17.0,4.0
# From MPEC 2024-GJ3
463P/NEOWISE,e,29.2921,283.2143,216.3455,2.974287,0.1921453,0.82572397,106.3162,10/03.0/2024,2000,g 18.0,4.0
# From MPEC 2024-Q20
464P/PANSTARRS,e,21.6702,309.5773,267.5962,4.685412,0.0971812,0.28046178,56.7000,10/03.0/2024,2000,g 10.5,4.0
# From MPEC 2024-NE4
465P/Hill,e,25.8649,217.9899,141.0469,6.018592,0.0667516,0.61352079,34.2211,10/03.0/2024,2000,g 12.5,4.0
# From MPEC 2024-JU4
466P/PANSTARRS,e,12.2851,119.4739,197.1933,4.055930,0.1206614,0.46949774,62.4054,10/03.0/2024,2000,g 14.0,4.0
# From MPEC 2023-T65
467P/LINEAR-Grauer,e,2.4790,43.2660,267.7915,5.829307,0.0700291,0.05496779,47.0695,10/03.0/2024,2000,g  9.0,4.0
# From MPEC 2024-O39
468P/SidingSpring,e,50.4477,356.1237,322.5858,7.121919,0.0518571,0.44535160,16.4264,10/03.0/2024,2000,g 11.5,4.0
# From MPEC 2024-P23
469P/PANSTARRS,e,20.1738,178.9662,43.5100,4.340971,0.1089742,0.30774085,312.9756,10/03.0/2024,2000,g 13.5,4.0
# From MPEC 2024-R10
